0 COSMOS 860 COOLANT
1 29195U 76103H   13286.39219782  .00000069  00000-0  13848-3 0  6746
2 29195 064.6943 292.1931 0064188 330.7342 147.9775 13.85440100534161
